PRAETORIAN SDA_617      
1 65580U 25203R   26065.21486397  .00000067  00000+0  50319-4 0  9999
2 65580  81.3009 106.1060 0008722 109.5872 250.6227 13.83190916 24452
PRAETORIAN SDA_618      
1 65581U 25203S   26065.23234500  .00000354  00000+0  30400-3 0  9996
2 65581  81.2995 105.9388 0011031 110.9885 249.2453 13.84762398 24469
PRAETORIAN SDA_619      
1 65582U 25203T   26065.20615806  .00000363  00000+0  31647-3 0  9990
2 65582  81.3013 106.1023 0009190 107.1144 253.1019 13.83931158 25082
PRAETORIAN SDA_620      
1 65583U 25203U   26065.21470181  .00000299  00000+0  25943-3 0  9997
2 65583  81.2998 106.0885 0008776 107.9547 252.2567 13.83705308 24457
PRAETORIAN SDA_621      
1 65584U 25203V   26065.19897839  .00000082  00000+0  63463-4 0  9998
2 65584  81.2992 106.0534 0008658 104.4022 255.8096 13.83786927 24454
PRAETORIAN SDA_601      
1 65585U 25203W   26065.20992673  .00000321  00000+0  28114-3 0  9992
2 65585  81.3000 106.2542 0006506 116.7345 243.4478 13.83484836 24441
