[{"OBJECT_NAME":"PRAETORIAN SDA_617","OBJECT_ID":"2025-203R","EPOCH":"2026-03-06T05:09:24.247008","MEAN_MOTION":13.83190916,"ECCENTRICITY":0.00087228,"INCLINATION":81.3009,"RA_OF_ASC_NODE":106.106,"ARG_OF_PERICENTER":109.5872,"MEAN_ANOMALY":250.6227,"EPHEMERIS_TYPE":0,"CLASSIFICATION_TYPE":"U","NORAD_CAT_ID":65580,"ELEMENT_SET_NO":999,"REV_AT_EPOCH":2445,"BSTAR":5.0318642e-5,"MEAN_MOTION_DOT":6.7e-7,"MEAN_MOTION_DDOT":0},{"OBJECT_NAME":"PRAETORIAN SDA_618","OBJECT_ID":"2025-203S","EPOCH":"2026-03-06T05:34:34.608000","MEAN_MOTION":13.84762398,"ECCENTRICITY":0.00110314,"INCLINATION":81.2995,"RA_OF_ASC_NODE":105.9388,"ARG_OF_PERICENTER":110.9885,"MEAN_ANOMALY":249.2453,"EPHEMERIS_TYPE":0,"CLASSIFICATION_TYPE":"U","NORAD_CAT_ID":65581,"ELEMENT_SET_NO":999,"REV_AT_EPOCH":2446,"BSTAR":0.00030399786,"MEAN_MOTION_DOT":3.54e-6,"MEAN_MOTION_DDOT":0},{"OBJECT_NAME":"PRAETORIAN SDA_619","OBJECT_ID":"2025-203T","EPOCH":"2026-03-06T04:56:52.056384","MEAN_MOTION":13.83931158,"ECCENTRICITY":0.00091903,"INCLINATION":81.3013,"RA_OF_ASC_NODE":106.1023,"ARG_OF_PERICENTER":107.1144,"MEAN_ANOMALY":253.1019,"EPHEMERIS_TYPE":0,"CLASSIFICATION_TYPE":"U","NORAD_CAT_ID":65582,"ELEMENT_SET_NO":999,"REV_AT_EPOCH":2508,"BSTAR":0.0003164662,"MEAN_MOTION_DOT":3.63e-6,"MEAN_MOTION_DDOT":0},{"OBJECT_NAME":"PRAETORIAN SDA_620","OBJECT_ID":"2025-203U","EPOCH":"2026-03-06T05:09:10.236384","MEAN_MOTION":13.83705308,"ECCENTRICITY":0.00087769,"INCLINATION":81.2998,"RA_OF_ASC_NODE":106.0885,"ARG_OF_PERICENTER":107.9547,"MEAN_ANOMALY":252.2567,"EPHEMERIS_TYPE":0,"CLASSIFICATION_TYPE":"U","NORAD_CAT_ID":65583,"ELEMENT_SET_NO":999,"REV_AT_EPOCH":2445,"BSTAR":0.00025942802,"MEAN_MOTION_DOT":2.99e-6,"MEAN_MOTION_DDOT":0},{"OBJECT_NAME":"PRAETORIAN SDA_621","OBJECT_ID":"2025-203V","EPOCH":"2026-03-06T04:46:31.732896","MEAN_MOTION":13.83786927,"ECCENTRICITY":0.00086581,"INCLINATION":81.2992,"RA_OF_ASC_NODE":106.0534,"ARG_OF_PERICENTER":104.4022,"MEAN_ANOMALY":255.8096,"EPHEMERIS_TYPE":0,"CLASSIFICATION_TYPE":"U","NORAD_CAT_ID":65584,"ELEMENT_SET_NO":999,"REV_AT_EPOCH":2445,"BSTAR":6.3463248e-5,"MEAN_MOTION_DOT":8.2e-7,"MEAN_MOTION_DDOT":0},{"OBJECT_NAME":"PRAETORIAN SDA_601","OBJECT_ID":"2025-203W","EPOCH":"2026-03-06T05:02:17.669472","MEAN_MOTION":13.83484836,"ECCENTRICITY":0.00065067,"INCLINATION":81.3,"RA_OF_ASC_NODE":106.2542,"ARG_OF_PERICENTER":116.7345,"MEAN_ANOMALY":243.4478,"EPHEMERIS_TYPE":0,"CLASSIFICATION_TYPE":"U","NORAD_CAT_ID":65585,"ELEMENT_SET_NO":999,"REV_AT_EPOCH":2444,"BSTAR":0.00028113899,"MEAN_MOTION_DOT":3.21e-6,"MEAN_MOTION_DDOT":0}]
